0 UCLSAT
1 42765U 17036A   22240.17809915  .00008105  00000-0  27153-3 0  9996
2 42765  97.1916 280.6429 0010700  73.8978 286.3441 15.31129568288232
0 NIUSAT
1 42766U 17036B   22239.82980093  .00005856  00000-0  22070-3 0  9997
2 42766  97.1970 275.1299 0015093  77.0664 283.2260 15.27337513287695
0 CARTOSAT 2E
1 42767U 17036C   22240.44614995  .00001322  00000-0  65939-4 0  9999
2 42767  97.4493 299.9913 0008669 123.0074 294.1950 15.19232642287295
0 LITUANICASAT 2
1 42768U 17036D   22240.07587399  .00021362  00000-0  55980-3 0  9996
2 42768  97.1999 284.0188 0010733  58.2381 301.9909 15.38645920288254
0 CE-SAT 1
1 42769U 17036E   22239.92715378  .00003565  00000-0  14892-3 0  9991
2 42769  97.1940 272.2563 0015760  81.5179 278.7834 15.24136262287487
0 LEMUR 2 SHAINAJOHL
1 42771U 17036G   22239.65241246  .00009385  00000-0  30538-3 0  9993
2 42771  97.1966 279.2553 0012689  68.4294 291.8299 15.32002619287885
0 LEMUR 2 XUENITERENCE
1 42772U 17036H   22240.33198423  .00012948  00000-0  40007-3 0  9990
2 42772  97.1886 280.0849 0011968  63.3663 296.8804 15.33581818288037
0 LEMUR 2 LUCYBRYCE
1 42773U 17036J   22239.56294666  .00008424  00000-0  29648-3 0  9992
2 42773  97.1998 279.3088 0013123  69.3644 290.9002 15.29486329287836
0 LEMUR 2 KUNGFOO
1 42774U 17036K   22239.90188551  .00010813  00000-0  34781-3 0  9995
2 42774  97.1960 279.9553 0012061  65.8634 294.3868 15.32341543287941
0 AALTO 1
1 42775U 17036L   22239.84135301  .00004392  00000-0  17106-3 0  9991
2 42775  97.1926 274.9352 0014074  76.6582 283.6225 15.26395160287668
0 URSA MAIOR
1 42776U 17036M   22239.85975021  .00005039  00000-0  19211-3 0  9992
2 42776  97.1939 275.7565 0013703  75.6047 284.6712 15.27037471287707
0 COMPASS 2
1 42777U 17036N   22240.07054588  .00013861  00000-0  41463-3 0  9991
2 42777  97.1987 283.0027 0010575  63.0606 297.1717 15.34610592288122
0 MAX VALIER SAT
1 42778U 17036P   22240.05628974  .00005370  00000-0  19925-3 0  9990
2 42778  97.1998 278.7218 0012412  76.1032 284.1588 15.27928006287831
0 LEMUR 2 LYNSEY-SYMO
1 42779U 17036Q   22240.12307296  .00013521  00000-0  39422-3 0  9991
2 42779  97.1988 284.8191 0009972  66.7403 293.4890 15.35431596288239
0 LEMUR 2 LISASAURUS
1 42780U 17036R   22240.06373538  .00013108  00000-0  42462-3 0  9997
2 42780  97.1992 281.2695 0011029  72.9358 287.3092 15.32077760288018
0 LEMUR 2 SAM-AMELIA
1 42781U 17036S   22240.54602274  .00007230  00000-0  24936-3 0  9998
2 42781  97.1996 282.4268 0011684  69.9520 290.2978 15.30210889288101
0 LEMUR 2 MCPEAKE
1 42782U 17036T   22240.08890689  .00009915  00000-0  31094-3 0  9992
2 42782  97.1974 283.0173 0010336  69.5627 290.6724 15.33196261288133
0 DIAMOND RED
1 42783U 17036U   22240.09602765  .00005748  00000-0  20985-3 0  9997
2 42783  97.1942 278.4543 0012055  78.9650 281.2945 15.28433462287881
0 PEGASUS
1 42784U 17036V   22240.07909778  .00007666  00000-0  26487-3 0  9994
2 42784  97.1937 279.7317 0011594  76.4945 283.7588 15.30133977287966
0 DIAMOND GREEN
1 42785U 17036W   22240.09636042  .00006016  00000-0  21974-3 0  9992
2 42785  97.1945 278.5179 0011878  80.4698 279.7884 15.28401040287874
0 DIAMOND BLUE
1 42786U 17036X   22240.09537241  .00005884  00000-0  21496-3 0  9995
2 42786  97.1945 278.5091 0011935  80.7133 279.5456 15.28401119287879
0 NUDTSAT
1 42787U 17036Y   22240.60240857  .00010205  00000-0  29382-3 0  9992
2 42787  97.1977 284.9212 0009630  64.5711 295.6529 15.35900879288160
0 SUCHAI
1 42788U 17036Z   22239.85498132  .00009536  00000-0  30863-3 0  9990
2 42788  97.1942 281.3531 0010724  73.1322 287.1096 15.32191040288117
0 SKCUBE
1 42789U 17036AA  22239.56336523  .00007318  00000-0  24426-3 0  9998
2 42789  97.1942 280.4493 0010850  74.9392 285.3049 15.31279738287950
0 VZLUSAT 1
1 42790U 17036AB  22239.11901982  .00010048  00000-0  29148-3 0  9998
2 42790  97.1966 283.4231 0009325  69.6720 290.5525 15.35671902288087
0 VENTA 1
1 42791U 17036AC  22239.82254855  .00007098  00000-0  24246-3 0  9992
2 42791  97.1945 280.5226 0010665  74.9201 285.3219 15.30542851287973
0 ROBUSTA 1B
1 42792U 17036AD  22239.88481949  .00009520  00000-0  31083-3 0  9994
2 42792  97.1940 281.3807 0010379  74.0673 286.1712 15.31912850288057
0 CICERO 6
1 42793U 17036AE  22240.05669523  .00005373  00000-0  19743-3 0  9993
2 42793  97.1922 278.9351 0010609  79.4450 280.7984 15.28268015288001
0 DSAT
1 42794U 17036AF  22240.00253199  .00000670  00000-0  61230-4 0  9991
2 42794  97.4536 241.6563 0121756 204.8634 154.6690 14.92897764282187
0 TYVAK 53B
1 42795U 17036AG  22240.09478801  .00024022  00000-0  60384-3 0  9995
2 42795  97.1745 281.1374 0005193 179.9358 180.1891 15.39944430288332
0 BULGARIASAT-1
1 42801U 17038A   22239.95326979  .00000009  00000-0  00000+0 0  9990
2 42801   0.0304 104.4209 0002650  54.8599 161.9293  1.00271425 18975
0 IRIDIUM 113
1 42803U 17039A   22239.80031151  .00000128  00000-0  38615-4 0  9992
2 42803  86.4035 182.7407 0002104  85.9932 274.1504 14.34215666272043
0 IRIDIUM 123
1 42804U 17039B   22240.46971914  .00000132  00000-0  39917-4 0  9998
2 42804  86.3990 213.9390 0002057  82.7496 277.3933 14.34220355270903
0 IRIDIUM 120
1 42805U 17039C   22239.86375930  .00000133  00000-0  40372-4 0  9995
2 42805  86.4027 182.6764 0001978  86.7179 273.4243 14.34215264272047
0 IRIDIUM 115
1 42806U 17039D   22239.58996510  .00000143  00000-0  36402-4 0  9998
2 42806  86.4566 182.7141 0001269  39.4823 320.6470 14.43285463273833
0 IRIDIUM 118
1 42807U 17039E   22239.87349047  .00000125  00000-0  37698-4 0  9996
2 42807  86.3988 214.1920 0002299  79.6886 280.4569 14.34221049270812
0 IRIDIUM 117
1 42808U 17039F   22239.89252728  .00000129  00000-0  38885-4 0  9991
2 42808  86.3987 214.1541 0002132  92.3998 267.7442 14.34220529270846
0 IRIDIUM 126
1 42809U 17039G   22239.91791180  .00000124  00000-0  37274-4 0  9991
2 42809  86.3988 214.1727 0002116  86.0652 274.0785 14.34219803270825
0 IRIDIUM 124
1 42810U 17039H   22240.14766580  .00000191  00000-0  50743-4 0  9996
2 42810  86.4547 150.9310 0002338  88.6180 271.5289 14.43282246274763
0 IRIDIUM 128
1 42811U 17039J   22239.62956666  .00000087  00000-0  24077-4 0  9999
2 42811  86.3932 245.8074 0001909  90.5284 269.6131 14.34216570270815
0 IRIDIUM 121
1 42812U 17039K   22239.65785858  .00000114  00000-0  33677-4 0  9993
2 42812  86.3989 214.3008 0002075  84.8370 275.3062 14.34219844270660
0 HELLAS-SAT 3
1 42814U 17040A   22240.47789785  .00000151  00000-0  00000+0 0  9992
2 42814   0.0654  16.9690 0002491  74.4506  96.3013  1.00270528 18937
0 GSAT 17
1 42815U 17040B   22240.13003470 -.00000259  00000-0  00000+0 0  9996
2 42815   0.0379 285.0137 0003201 323.8250 227.7734  1.00269371 18949
0 ARIANE 5 R/B
1 42816U 17040C   22239.66398151  .00005155  00000-0  10451-2 0  9999
2 42816   3.1591 356.2085 7228747 312.0664   6.1169  2.35482199 43531
0 ARIANE 5 DEB (SYLDA)
1 42817U 17040D   22239.91866654  .00167893  00000-0  92682-2 0  9990
2 42817   2.7169 156.5497 6315459 344.6072   2.7287  3.62947363 51831
0 INTELSAT 35E
1 42818U 17041A   22239.81757059 -.00000240  00000-0  00000-0 0  9993
2 42818   0.0071 146.3243 0001670   3.4951  86.0340  1.00271662 18883
0 FALCON 9 R/B
1 42819U 17041B   22240.39891586  .00015692  00000-0  29917-2 0  9999
2 42819  25.4611 266.3174 7570741  45.3942 355.6349  1.93943100 35566
0 KANOPUS-V-IK
1 42825U 17042A   22240.37919367  .00000660  00000-0  33325-4 0  9992
2 42825  97.4246 147.9742 0001703  85.1654  51.6001 15.20512034284098
0 NORSAT 1
1 42826U 17042B   22240.10580719  .00000594  00000-0  63044-4 0  9996
2 42826  97.4190  90.3894 0015697 121.4998 238.7758 14.92334965278787
0 OBJECT C
1 42827U 17042C   22240.24122788  .00000977  00000-0  99016-4 0  9993
2 42827  97.4187  91.3553 0015954 119.6046 240.6766 14.92922732278805
0 NORSAT 2
1 42828U 17042D   22239.80680167  .00001443  00000-0  14343-3 0  9992
2 42828  97.4230  92.1690 0015212 121.5828 238.6880 14.93050206278794
0 TECHNOSAT
1 42829U 17042E   22240.18251351  .00000663  00000-0  70430-4 0  9998
2 42829  97.4141  90.1161 0015242 123.6742 236.5934 14.91999204278782
0 OBJECT F
1 42830U 17042F   22240.26966990  .00003018  00000-0  27702-3 0  9991
2 42830  97.4271  95.0547 0014724 112.0840 248.1947 14.95472550279019
0 FLYING LAPTOP
1 42831U 17042G   22239.82825804  .00000655  00000-0  69839-4 0  9992
2 42831  97.4172  90.1144 0015164 124.8673 235.3954 14.91891054278737
0 OBJECT H
1 42832U 17042H   22240.13502934  .00000950  00000-0  97918-4 0  9992
2 42832  97.4155  90.8825 0014857 120.8973 239.3710 14.92310571278813
0 OBJECT J
1 42833U 17042J   22240.54750801  .00000822  00000-0  85384-4 0  9998
2 42833  97.4155  91.3938 0014846 119.7075 240.5624 14.92306644278895
0 OBJECT K
1 42834U 17042K   22240.36120260  .00000640  00000-0  67481-4 0  9995
2 42834  97.4158  91.2821 0014468 123.5309 236.7295 14.92387993278855
0 WNISAT 1R
1 42835U 17042L   22240.16343242  .00000364  00000-0  40996-4 0  9996
2 42835  97.4137  90.4167 0014450 121.9238 238.3390 14.91947572278804
0 OBJECT M
1 42836U 17042M   22240.50501219  .00000788  00000-0  82078-4 0  9992
2 42836  97.4152  91.2771 0014262 122.8664 237.3931 14.92339427278889
0 LEMUR 2 GREENBERG
1 42837U 17042N   22240.13854600  .00001602  00000-0  15542-3 0  9994
2 42837  97.4212  93.7956 0014029 114.1386 246.1304 14.93894955278970
0 LEMUR 2 ANDIS
1 42838U 17042P   22240.13465254  .00001579  00000-0  15314-3 0  9998
2 42838  97.4198  93.7300 0014106 113.9550 246.3150 14.93911905278979
0 LEMUR 2 MONSON
1 42839U 17042Q   22240.09752127  .00001190  00000-0  11729-3 0  9997
2 42839  97.4211  93.4467 0013814 114.1509 246.1158 14.93689758278940
0 LEMUR 2 FURIAUS
1 42840U 17042R   22239.41941953  .00001176  00000-0  11715-3 0  9999
2 42840  97.4251  93.1683 0014150 117.0288 243.2379 14.93288551278841
0 LEMUR 2 PETERG
1 42841U 17042S   22240.18293727  .00000503  00000-0  52297-4 0  9999
2 42841  97.4270  95.0017 0013646 110.0417 250.2274 14.93818794279022
